[{"OBJECT_NAME":"METEOR-M 2","OBJECT_ID":"2014-037A","EPOCH":"2026-03-09T23:09:30.537792","MEAN_MOTION":14.21428734,"ECCENTRICITY":0.00053128,"INCLINATION":98.5035,"RA_OF_ASC_NODE":48.2672,"ARG_OF_PERICENTER":336.7967,"MEAN_ANOMALY":23.2971,"EPHEMERIS_TYPE":0,"CLASSIFICATION_TYPE":"U","NORAD_CAT_ID":40069,"ELEMENT_SET_NO":999,"REV_AT_EPOCH":60522,"BSTAR":2.6040138e-5,"MEAN_MOTION_DOT":1.5e-7,"MEAN_MOTION_DDOT":0},{"OBJECT_NAME":"FENGYUN 1C DEB","OBJECT_ID":"1999-025DGX","EPOCH":"2026-03-02T12:13:56.604288","MEAN_MOTION":14.11962083,"ECCENTRICITY":0.00536731,"INCLINATION":98.9754,"RA_OF_ASC_NODE":165.4209,"ARG_OF_PERICENTER":280.6123,"MEAN_ANOMALY":78.9005,"EPHEMERIS_TYPE":0,"CLASSIFICATION_TYPE":"U","NORAD_CAT_ID":33710,"ELEMENT_SET_NO":999,"REV_AT_EPOCH":68782,"BSTAR":0.0010105855,"MEAN_MOTION_DOT":1.828e-5,"MEAN_MOTION_DDOT":0}]
